{
  "type": "FeatureCollection",
  "features": [
    {
      "type": "Feature",
      "properties": { "line": "orange", "name": "Orange Line — Automotive Square → Khapri", "color": "#F97316", "phase": "operational", "lengthKm": 19.66, "stations": 18 },
      "geometry": {
        "type": "LineString",
        "coordinates": [
          [79.11968, 21.18573], [79.10992, 21.17947], [79.10056, 21.17349],
          [79.09240, 21.16860], [79.08369, 21.16150], [79.08150, 21.15487],
          [79.08315, 21.14152], [79.07900, 21.13500], [79.07400, 21.12000],
          [79.06800, 21.11000], [79.06380, 21.08630], [79.05800, 21.07200],
          [79.05200, 21.06000], [79.04500, 21.05200], [79.04000, 21.04500],
          [79.03800, 21.03800], [79.03600, 21.03200], [79.03000, 21.02600]
        ]
      }
    },
    {
      "type": "Feature",
      "properties": { "line": "aqua", "name": "Aqua Line — Prajapati Nagar → Hingna Mount View", "color": "#00BCD4", "phase": "operational", "lengthKm": 18.56, "stations": 20 },
      "geometry": {
        "type": "LineString",
        "coordinates": [
          [78.99000, 21.13000], [79.00500, 21.13200], [79.02000, 21.13500],
          [79.03500, 21.13800], [79.05200, 21.14000], [79.06500, 21.14100],
          [79.08900, 21.14550], [79.08315, 21.14152], [79.09500, 21.14500],
          [79.10800, 21.14800], [79.11500, 21.15500], [79.12500, 21.16000],
          [79.13800, 21.15800], [79.15000, 21.15500], [79.16200, 21.15200],
          [79.17500, 21.14900], [79.18800, 21.14600], [79.20100, 21.14300],
          [79.21400, 21.14000], [79.22700, 21.13800], [79.24000, 21.13500],
          [79.25300, 21.13200]
        ]
      }
    }
  ]
}
