{
  "type": "FeatureCollection",
  "features": [
    {
      "type": "Feature",
      "properties": { "line": "Purple Line", "color": "#9C27B0", "operator": "MahaMetro", "status": "operational" },
      "geometry": {
        "type": "LineString",
        "coordinates": [
          [73.8059, 18.6279],
          [73.8018, 18.6195],
          [73.7988, 18.6098],
          [73.7972, 18.6008],
          [73.7958, 18.5918],
          [73.7958, 18.5828],
          [73.7978, 18.5738],
          [73.8238, 18.5658],
          [73.8318, 18.5578],
          [73.8468, 18.5328],
          [73.8548, 18.5228],
          [73.8558, 18.5148],
          [73.8568, 18.5098],
          [73.8608, 18.5018]
        ]
      }
    },
    {
      "type": "Feature",
      "properties": { "line": "Aqua Line", "color": "#00BCD4", "operator": "MahaMetro", "status": "operational" },
      "geometry": {
        "type": "LineString",
        "coordinates": [
          [73.8002, 18.5038],
          [73.8098, 18.5098],
          [73.8218, 18.5148],
          [73.8338, 18.5168],
          [73.8438, 18.5178],
          [73.8518, 18.5188],
          [73.8598, 18.5205],
          [73.8678, 18.5202],
          [73.8758, 18.5198],
          [73.8742, 18.5280],
          [73.8792, 18.5358],
          [73.8838, 18.5438],
          [73.8878, 18.5518],
          [73.8968, 18.5598],
          [73.9038, 18.5668],
          [73.9118, 18.5738]
        ]
      }
    }
  ]
}
