{
  "type": "FeatureCollection",
  "features": [
    {
      "type": "Feature",
      "properties": { "line": "line1", "name": "Blue Line 1 — Versova → Ghatkopar", "color": "#2196F3", "phase": "operational", "lengthKm": 11.4, "stations": 12, "opened": "2014" },
      "geometry": {
        "type": "LineString",
        "coordinates": [
          [72.8216, 19.1362], [72.8326, 19.1312], [72.8382, 19.1278],
          [72.8468, 19.1190], [72.8582, 19.1106], [72.8688, 19.1082],
          [72.8782, 19.1002], [72.8888, 19.0952], [72.8968, 19.0882],
          [72.9048, 19.0818], [72.9118, 19.0768], [72.9072, 19.0872]
        ]
      }
    },
    {
      "type": "Feature",
      "properties": { "line": "line2a", "name": "Yellow Line 2A — Dahisar East → D.N. Nagar", "color": "#FFC107", "phase": "operational", "lengthKm": 18.6, "stations": 17, "opened": "2022" },
      "geometry": {
        "type": "LineString",
        "coordinates": [
          [72.8670, 19.2511], [72.8638, 19.2318], [72.8688, 19.2178],
          [72.8708, 19.2018], [72.8718, 19.1918], [72.8718, 19.1818],
          [72.8718, 19.1718], [72.8698, 19.1608], [72.8658, 19.1498],
          [72.8618, 19.1428], [72.8578, 19.1368], [72.8558, 19.1308],
          [72.8538, 19.1258], [72.8518, 19.1218], [72.8488, 19.1178],
          [72.8458, 19.1088], [72.8418, 19.0988]
        ]
      }
    },
    {
      "type": "Feature",
      "properties": { "line": "line3", "name": "Aqua Line 3 — Aarey JVLR → Cuffe Parade", "color": "#00BCD4", "phase": "operational", "lengthKm": 33.5, "stations": 27, "opened": "2024-2025", "underground": true },
      "geometry": {
        "type": "LineString",
        "coordinates": [
          [72.8843, 19.1307], [72.8750, 19.1080], [72.8888, 19.0952],
          [72.8780, 19.1005], [72.8628, 19.0970], [72.8566, 19.0892],
          [72.8484, 19.0818], [72.8622, 19.0655], [72.8575, 19.0415],
          [72.8421, 19.0383], [72.8415, 19.0195], [72.8340, 19.0170],
          [72.8335, 19.0105], [72.8312, 18.9995], [72.8282, 18.9895],
          [72.8254, 18.9795], [72.8220, 18.9708], [72.8228, 18.9608],
          [72.8235, 18.9535], [72.8270, 18.9490], [72.8308, 18.9413],
          [72.8260, 18.9355], [72.8220, 18.9280], [72.8268, 18.9235],
          [72.8318, 18.9298], [72.8265, 18.9175], [72.8215, 18.9143]
        ]
      }
    },
    {
      "type": "Feature",
      "properties": { "line": "line7", "name": "Red Line 7 — Dahisar East → Gundavali", "color": "#F44336", "phase": "operational", "lengthKm": 16.5, "stations": 13, "opened": "2022-2023" },
      "geometry": {
        "type": "LineString",
        "coordinates": [
          [72.8670, 19.2511], [72.8625, 19.2378], [72.8625, 19.2278],
          [72.8635, 19.2178], [72.8658, 19.2018], [72.8655, 19.1905],
          [72.8668, 19.1805], [72.8668, 19.1705], [72.8618, 19.1605],
          [72.8575, 19.1518], [72.8558, 19.1480], [72.8551, 19.1430],
          [72.8552, 19.1288], [72.8552, 19.1150]
        ]
      }
    },
    {
      "type": "Feature",
      "properties": { "line": "line9", "name": "Red Line 9 — Dahisar East → Kashigaon", "color": "#E91E8C", "phase": "operational", "lengthKm": 3.1, "stations": 4, "opened": "2026-04-07" },
      "geometry": {
        "type": "LineString",
        "coordinates": [
          [72.8670, 19.2511], [72.8728, 19.2604], [72.8755, 19.2690], [72.8780, 19.2755]
        ]
      }
    }
  ]
}
