{
  "type": "FeatureCollection",
  "features": [
    {
      "type": "Feature",
      "properties": { "line": "yellow", "name": "Yellow Line (Operational)", "color": "#EAB308", "phase": "operational" },
      "geometry": {
        "type": "LineString",
        "coordinates": [
          [75.9040, 22.7562], [75.8978, 22.7492], [75.8912, 22.7418],
          [75.8848, 22.7348], [75.8788, 22.7282]
        ]
      }
    },
    {
      "type": "Feature",
      "properties": { "line": "yellow", "name": "Yellow Line (WIP)", "color": "#EAB308", "phase": "wip", "dashArray": "8,6" },
      "geometry": {
        "type": "LineString",
        "coordinates": [
          [75.8788, 22.7282], [75.8728, 22.7218], [75.8668, 22.7155],
          [75.8600, 22.7092], [75.8532, 22.7031], [75.8461, 22.6962],
          [75.8392, 22.6898], [75.8332, 22.6839], [75.8272, 22.6779],
          [75.8212, 22.7012], [75.8178, 22.7124], [75.8131, 22.7212],
          [75.8092, 22.7308], [75.8062, 22.7398], [75.8039, 22.7488],
          [75.8038, 22.7562], [75.8638, 22.7201], [75.8552, 22.7162],
          [75.8468, 22.7198], [75.8388, 22.7181], [75.8302, 22.7148],
          [75.8218, 22.7112], [75.8302, 22.7069], [75.8481, 22.7148],
          [75.8011, 22.7218], [75.9040, 22.7562]
        ]
      }
    }
  ]
}
