{"type":"FeatureCollection","features":[{"type":"Feature","properties":{"line":"metro","name":"Meerut Metro (Elevated)","color":"#00897B","phase":"operational"},"geometry":{"type":"LineString","coordinates":[[77.7308,28.9238],[77.7178,28.9338],[77.7138,28.9438],[77.7128,28.9548]]}},{"type":"Feature","properties":{"line":"metro","name":"Meerut Metro (Underground)","color":"#00897B","phase":"operational","dashArray":"4,3"},"geometry":{"type":"LineString","coordinates":[[77.7128,28.9548],[77.7058,28.9618],[77.6898,28.9715],[77.6838,28.9818]]}},{"type":"Feature","properties":{"line":"metro","name":"Meerut Metro (Elevated N)","color":"#00897B","phase":"operational"},"geometry":{"type":"LineString","coordinates":[[77.6838,28.9818],[77.7028,28.9938],[77.7028,29.0028],[77.7078,29.0118],[77.7128,29.0218],[77.7198,29.0338]]}},{"type":"Feature","properties":{"line":"metro","name":"Meerut Metro (WIP)","color":"#00897B","phase":"wip","dashArray":"8,6"},"geometry":{"type":"LineString","coordinates":[[77.7198,29.0338],[77.7258,29.0438]]}}]}
