{
  "type": "FeatureCollection",
  "features": [
    {
      "type": "Feature",
      "properties": { "line": "red", "name": "Red Line", "color": "#C0392B", "phase": "operational" },
      "geometry": {
        "type": "LineString",
        "coordinates": [
          [80.2329, 26.5123],
          [80.2538, 26.5009],
          [80.2696, 26.4942],
          [80.2853, 26.4879],
          [80.3008, 26.4822],
          [80.3142, 26.4769],
          [80.3286, 26.4705]
        ]
      }
    },
    {
      "type": "Feature",
      "properties": { "line": "red", "name": "Red Line (WIP)", "color": "#C0392B", "phase": "wip", "dashArray": "8,6" },
      "geometry": {
        "type": "LineString",
        "coordinates": [
          [80.3286, 26.4705],
          [80.3472, 26.4658],
          [80.3581, 26.4597],
          [80.3648, 26.4543],
          [80.3714, 26.4498],
          [80.3776, 26.4462],
          [80.3842, 26.4421],
          [80.3921, 26.4378],
          [80.4004, 26.4339],
          [80.4091, 26.4298],
          [80.4178, 26.4249],
          [80.4258, 26.4206],
          [80.4335, 26.4165],
          [80.4419, 26.4118]
        ]
      }
    }
  ]
}
