{
  "type": "FeatureCollection",
  "features": [
    {
      "type": "Feature",
      "properties": { "line": "blue", "name": "Blue Line (Operational)", "color": "#1E40AF", "phase": "operational" },
      "geometry": {
        "type": "LineString",
        "coordinates": [
          [80.3171,13.1698],[80.3152,13.1638],[80.3128,13.1558],[80.3102,13.1472],
          [80.3078,13.1398],[80.3048,13.1322],[80.3018,13.1252],[80.2981,13.1172],
          [80.2948,13.1098],[80.2912,13.1018],[80.2852,13.0938],[80.2811,13.0881],
          [80.2762,13.0827],[80.2461,13.0598],[80.2421,13.0551],[80.2378,13.0498],
          [80.2322,13.0432],[80.2278,13.0381],[80.2218,13.0318],[80.2171,13.0268],
          [80.2102,13.0198],[80.2002,13.0112],[80.1902,13.0041],
          [80.1798,12.9978],[80.1712,12.9897],[80.1637,12.9823]
        ]
      }
    },
    {
      "type": "Feature",
      "properties": { "line": "blue", "name": "Blue Line (WIP Extension)", "color": "#1E40AF", "phase": "wip", "dashArray": "8,6" },
      "geometry": {
        "type": "LineString",
        "coordinates": [
          [80.1637,12.9823],[80.1538,12.9721],[80.1431,12.9618],[80.1318,12.9518],
          [80.1201,12.9421],[80.1091,12.9318],[80.0988,12.9218],[80.0882,12.9118],
          [80.0772,12.9018],[80.0668,12.8918],[80.0558,12.8818],[80.0451,12.8718]
        ]
      }
    },
    {
      "type": "Feature",
      "properties": { "line": "green", "name": "Green Line (Operational)", "color": "#16A34A", "phase": "operational" },
      "geometry": {
        "type": "LineString",
        "coordinates": [
          [80.2762,13.0827],[80.2702,13.0768],[80.2638,13.0701],[80.2572,13.0638],
          [80.2498,13.0568],[80.1958,13.0698],[80.1912,13.0658],[80.1868,13.0601],
          [80.1818,13.0538],[80.1768,13.0471],[80.1958,13.0271],
          [80.1902,13.0041],[80.1828,12.9968]
        ]
      }
    }
  ]
}
