{
  "type": "FeatureCollection",
  "features": [
    {
      "type": "Feature",
      "properties": {
        "line": "blue",
        "name": "Blue Line (Aluva → Thrippunithura Terminal)",
        "color": "#3B82F6",
        "phase": "operational",
        "lengthKm": 27.96,
        "stations": 25,
        "openedFinal": "2024-03-06"
      },
      "geometry": {
        "type": "LineString",
        "coordinates": [
          [76.3496, 10.1098],
          [76.3467, 10.0951],
          [76.3428, 10.0873],
          [76.3390, 10.0794],
          [76.3337, 10.0727],
          [76.3219, 10.0584],
          [76.3184, 10.0469],
          [76.3144, 10.0359],
          [76.3093, 10.0267],
          [76.3023, 10.0152],
          [76.3039, 10.0090],
          [76.2990, 10.0005],
          [76.2916,  9.9946],
          [76.2880,  9.9912],
          [76.2821,  9.9841],
          [76.2850,  9.9734],
          [76.2913,  9.9678],
          [76.2983,  9.9666],
          [76.3084,  9.9671],
          [76.3204,  9.9675],
          [76.3237,  9.9601],
          [76.3310,  9.9512],
          [76.3370,  9.9425],
          [76.3415,  9.9360],
          [76.3472,  9.9295]
        ]
      }
    },
    {
      "type": "Feature",
      "properties": {
        "line": "pink",
        "name": "Pink Line — Phase II (JLN Stadium → Infopark/Kakkanad)",
        "color": "#EC4899",
        "phase": "wip",
        "dashArray": "8,6",
        "lengthKm": 11.2,
        "stations": 11,
        "expectedYear": 2027
      },
      "geometry": {
        "type": "LineString",
        "coordinates": [
          [76.2990, 10.0005],
          [76.3100, 10.0050],
          [76.3250, 10.0100],
          [76.3400, 10.0120],
          [76.3500, 10.0080],
          [76.3600, 10.0040],
          [76.3650, 10.0000]
        ]
      }
    }
  ]
}
