{
  "type": "FeatureCollection",
  "features": [
    {
      "type": "Feature",
      "properties": {
        "line": "Pink Line",
        "color": "#E91E8C",
        "operator": "JMRC",
        "phase": "1A+1B",
        "status": "operational"
      },
      "geometry": {
        "type": "LineString",
        "coordinates": [
          [75.749971, 26.879531],
          [75.764602, 26.880308],
          [75.768499, 26.888952],
          [75.770667, 26.896650],
          [75.774652, 26.901944],
          [75.781277, 26.909585],
          [75.789903, 26.918559],
          [75.799747, 26.922563],
          [75.807456, 26.926370],
          [75.818456, 26.924720],
          [75.826814, 26.922960]
        ]
      }
    }
  ]
}
