{"type":"FeatureCollection","features":[{"type":"Feature","properties":{"line":"aqua","name":"Aqua Line","color":"#00BCD4","phase":"operational"},"geometry":{"type":"LineString","coordinates":[[77.3728,28.5867],[77.3742,28.5754],[77.3812,28.5632],[77.3848,28.5564],[77.3902,28.5438],[77.3948,28.5323],[77.3965,28.5222],[77.4012,28.5108],[77.4126,28.4991],[77.4222,28.4945],[77.4329,28.4865],[77.4428,28.4782],[77.4550,28.4689],[77.4659,28.4595],[77.4756,28.4512],[77.4854,28.4418],[77.4922,28.4325],[77.4982,28.4242],[77.5036,28.4159],[77.5094,28.4082],[77.5160,28.3998]]}}]}
