{
  "type": "FeatureCollection",
  "features": [
    {
      "type": "Feature",
      "properties": { "line": "Purple Line", "color": "#9C27B0", "operator": "BMRCL", "status": "operational" },
      "geometry": {
        "type": "LineString",
        "coordinates": [
          [77.7501,12.9702],[77.7412,12.9718],[77.7348,12.9752],[77.7268,12.9782],
          [77.7188,12.9812],[77.7102,12.9835],[77.7018,12.9852],[77.6938,12.9865],
          [77.6858,12.9878],[77.6772,12.9885],[77.6688,12.9890],[77.6608,12.9905],
          [77.6518,12.9908],[77.6505,12.9908],[77.6408,12.9784],[77.6388,12.9748],
          [77.6318,12.9735],[77.6198,12.9755],[77.6100,12.9759],[77.5965,12.9788],
          [77.5868,12.9788],[77.5778,12.9778],[77.5712,12.9770],[77.5635,12.9769],
          [77.5538,12.9738],[77.5438,12.9618],[77.5348,12.9538],[77.5258,12.9468],
          [77.5158,12.9398],[77.5068,12.9358],[77.4968,12.9338],[77.4878,12.9368],
          [77.4778,12.9408],[77.4698,12.9438],[77.4838,12.9468],[77.4837,12.9481],
          [77.4638,12.9422]
        ]
      }
    },
    {
      "type": "Feature",
      "properties": { "line": "Green Line", "color": "#4CAF50", "operator": "BMRCL", "status": "operational" },
      "geometry": {
        "type": "LineString",
        "coordinates": [
          [77.5350,13.0675],[77.5285,13.0585],[77.5215,13.0495],[77.5152,13.0418],
          [77.5068,13.0328],[77.5128,13.0248],[77.5208,13.0168],[77.5278,13.0088],
          [77.5348,13.0018],[77.5398,12.9948],[77.5458,12.9878],[77.5518,12.9808],
          [77.5568,12.9748],[77.5618,12.9698],[77.5658,12.9638],[77.5712,12.9770],
          [77.5738,12.9618],[77.5758,12.9558],[77.5778,12.9488],[77.5828,12.9428],
          [77.5838,12.9358],[77.5848,12.9278],[77.5878,12.9198],[77.5748,12.9128],
          [77.5618,12.9068],[77.5718,12.8998],[77.5778,12.8928],[77.5838,12.8858],
          [77.5908,12.8788]
        ]
      }
    },
    {
      "type": "Feature",
      "properties": { "line": "Yellow Line", "color": "#F9A825", "operator": "BMRCL", "status": "operational", "opened": "2025-08-10" },
      "geometry": {
        "type": "LineString",
        "coordinates": [
          [77.5878,12.9198],[77.5958,12.9248],[77.6022,12.9168],[77.6078,12.9068],
          [77.6188,12.9018],[77.6248,12.8938],[77.6318,12.8828],[77.6388,12.8728],
          [77.6448,12.8618],[77.6508,12.8518],[77.6558,12.8418],[77.6618,12.8338],
          [77.6688,12.8238],[77.6748,12.8148],[77.6808,12.8058],[77.6878,12.7978]
        ]
      }
    }
  ]
}
