{
  "type": "FeatureCollection",
  "features": [
    {
      "type": "Feature",
      "properties": { "line": "red", "name": "Red Line — Miyapur → LB Nagar", "color": "#F44336", "phase": "operational", "lengthKm": 29.87, "stations": 26 },
      "geometry": {
        "type": "LineString",
        "coordinates": [
          [78.3622, 17.4950], [78.3748, 17.4935], [78.3875, 17.4888],
          [78.3988, 17.4848], [78.4108, 17.4818], [78.4268, 17.4618],
          [78.4388, 17.4488], [78.4448, 17.4388], [78.4488, 17.4288],
          [78.4668, 17.4418], [78.4538, 17.4348], [78.4718, 17.4428],
          [78.4578, 17.4488], [78.4808, 17.4318], [78.4858, 17.4258],
          [78.4758, 17.4028], [78.4728, 17.3928], [78.4748, 17.3838],
          [78.4800, 17.3781], [78.4928, 17.3748], [78.5008, 17.3688],
          [78.5088, 17.3638], [78.5168, 17.3578], [78.5248, 17.3528],
          [78.5338, 17.3488], [78.5448, 17.3438]
        ]
      }
    },
    {
      "type": "Feature",
      "properties": { "line": "blue", "name": "Blue Line — Nagole → Raidurg", "color": "#2196F3", "phase": "operational", "lengthKm": 27, "stations": 23 },
      "geometry": {
        "type": "LineString",
        "coordinates": [
          [78.5608, 17.3888], [78.5578, 17.4058], [78.5448, 17.4218],
          [78.5388, 17.4258], [78.5278, 17.4288], [78.5148, 17.4288],
          [78.5018, 17.4288], [78.4998, 17.4358], [78.5028, 17.4388],
          [78.4898, 17.4428], [78.4798, 17.4448], [78.4668, 17.4438],
          [78.4568, 17.4418], [78.4538, 17.4348], [78.4468, 17.4308],
          [78.4398, 17.4238], [78.4328, 17.4158], [78.4258, 17.4078],
          [78.4188, 17.4018], [78.4118, 17.4008], [78.4028, 17.4058],
          [78.3968, 17.4138], [78.3808, 17.4228]
        ]
      }
    },
    {
      "type": "Feature",
      "properties": { "line": "green", "name": "Green Line — JBS Parade Ground → MG Bus Station (Operational)", "color": "#4CAF50", "phase": "operational", "lengthKm": 11, "stations": 9 },
      "geometry": {
        "type": "LineString",
        "coordinates": [
          [78.5028, 17.4508], [78.4998, 17.4388], [78.4928, 17.4258],
          [78.4858, 17.4148], [78.4848, 17.4058], [78.4858, 17.3968],
          [78.4848, 17.3878], [78.4808, 17.3808], [78.4800, 17.3781]
        ]
      }
    },
    {
      "type": "Feature",
      "properties": { "line": "green", "name": "Green Line — MG Bus Station → Falaknuma (WIP)", "color": "#4CAF50", "phase": "wip", "dashArray": "8,6" },
      "geometry": {
        "type": "LineString",
        "coordinates": [
          [78.4800, 17.3781], [78.4870, 17.3650], [78.4860, 17.3550],
          [78.4850, 17.3430], [78.4840, 17.3330], [78.4830, 17.3230],
          [78.4820, 17.3130]
        ]
      }
    }
  ]
}
