{
  "type": "FeatureCollection",
  "features": [
    {
      "type": "Feature",
      "properties": { "line": "Red Line", "color": "#F44336" },
      "geometry": { "type": "LineString", "coordinates": [
        [77.4218,28.6438],[77.4028,28.6508],[77.3848,28.6568],[77.3648,28.6618],
        [77.3468,28.6648],[77.3298,28.6668],[77.3158,28.6678],[77.3038,28.6688],
        [77.3128,28.6708],[77.3058,28.6698],[77.2978,28.6688],[77.3048,28.6688],
        [77.2948,28.6688],[77.2848,28.6658],[77.2658,28.6588],[77.2298,28.6682],
        [77.2088,28.6668],[77.1988,28.6678],[77.1888,28.6698],[77.1858,28.6718],
        [77.1878,28.6748],[77.1748,28.6828],[77.1638,28.6908],[77.1528,28.6988],
        [77.1428,28.7038],[77.1338,28.7088],[77.1238,28.7158],[77.1158,28.7218],
        [77.1128,28.7288]
      ]}
    },
    {
      "type": "Feature",
      "properties": { "line": "Yellow Line", "color": "#FFC107" },
      "geometry": { "type": "LineString", "coordinates": [
        [77.1425,28.7299],[77.1498,28.7218],[77.1548,28.7168],[77.1628,28.7268],
        [77.1742,28.7108],[77.1812,28.7052],[77.1908,28.7008],[77.2088,28.6988],
        [77.2088,28.6988],[77.2238,28.6888],[77.2298,28.6682],[77.2288,28.6568],
        [77.2288,28.6468],[77.2208,28.6368],[77.2197,28.6328],[77.2128,28.6238],
        [77.2118,28.6148],[77.2138,28.6088],[77.2028,28.5938],[77.2018,28.5858],
        [77.2098,28.5698],[77.2118,28.5668],[77.2068,28.5568],[77.2038,28.5438],
        [77.1988,28.5288],[77.2108,28.5228],[77.1878,28.5258],[77.1778,28.5098],
        [77.1698,28.4978],[77.1568,28.4898],[77.1468,28.4768],[77.1338,28.4608],
        [77.0932,28.4808],[77.0692,28.4748],[77.0768,28.4698],[77.0722,28.4618]
      ]}
    },
    {
      "type": "Feature",
      "properties": { "line": "Blue Line", "color": "#2196F3" },
      "geometry": { "type": "LineString", "coordinates": [
        [77.0580,28.5612],[77.0698,28.5692],[77.0818,28.5768],[77.0918,28.5848],
        [77.1008,28.5918],[77.1098,28.5988],[77.1188,28.6048],[77.1268,28.6108],
        [77.0988,28.6178],[77.0948,28.6258],[77.0878,28.6318],[77.0828,28.6358],
        [77.0838,28.6288],[77.0958,28.6348],[77.1058,28.6418],[77.1168,28.6468],
        [77.1278,28.6498],[77.1308,28.6498],[77.1448,28.6508],[77.1558,28.6538],
        [77.1498,28.6548],[77.1618,28.6508],[77.1748,28.6488],[77.1888,28.6468],
        [77.1988,28.6468],[77.2068,28.6448],[77.2138,28.6388],[77.2197,28.6328],
        [77.2258,28.6308],[77.2392,28.6272],[77.2498,28.6318],[77.2638,28.6352],
        [77.2908,28.6418],[77.2968,28.6218],[77.2948,28.6088],[77.3048,28.5988],
        [77.3148,28.5908],[77.3258,28.5828],[77.3358,28.5748],[77.3428,28.5648],
        [77.3370,28.5570],[77.3638,28.5618],[77.3848,28.5698],[77.4008,28.5748],
        [77.4148,28.5788],[77.4298,28.5808],[77.4428,28.5758],[77.4598,28.5668],
        [77.4875,28.5523]
      ]}
    },
    {
      "type": "Feature",
      "properties": { "line": "Blue Branch (Vaishali)", "color": "#1565C0" },
      "geometry": { "type": "LineString", "coordinates": [
        [77.2908,28.6418],[77.3048,28.6418],[77.3188,28.6418],[77.3308,28.6418],
        [77.3088,28.6448],[77.3128,28.6468],[77.3268,28.6448],[77.3468,28.6418]
      ]}
    },
    {
      "type": "Feature",
      "properties": { "line": "Green Line", "color": "#4CAF50" },
      "geometry": { "type": "LineString", "coordinates": [
        [77.0668,28.7128],[77.0748,28.7068],[77.0828,28.7008],[77.0908,28.6948],
        [77.0988,28.6888],[77.1068,28.6818],[77.1148,28.6748],[77.1238,28.6688],
        [77.1328,28.6628],[77.1418,28.6568],[77.1508,28.6518],[77.1608,28.6468],
        [77.1698,28.6418],[77.1778,28.6368],[77.1008,28.6668],[77.1108,28.6618],
        [77.1288,28.6568],[77.1408,28.6538],[77.1528,28.6498],[77.1658,28.6578],
        [77.1878,28.6748],[77.1498,28.6548]
      ]}
    },
    {
      "type": "Feature",
      "properties": { "line": "Violet Line", "color": "#9C27B0" },
      "geometry": { "type": "LineString", "coordinates": [
        [77.2298,28.6682],[77.2408,28.6558],[77.2358,28.6508],[77.2388,28.6448],
        [77.2428,28.6348],[77.2392,28.6272],[77.2228,28.6228],[77.2118,28.6148],
        [77.2258,28.6018],[77.2328,28.5918],[77.2418,28.5818],[77.2418,28.5698],
        [77.2368,28.5608],[77.2378,28.5508],[77.2508,28.5468],[77.2528,28.5468],
        [77.2568,28.5378],[77.2628,28.5308],[77.2718,28.5248],[77.2858,28.5188],
        [77.2988,28.5128],[77.3028,28.5028],[77.3128,28.4948],[77.3028,28.5068],
        [77.3028,28.5168],[77.3188,28.4988],[77.3288,28.4888],[77.3388,28.4788],
        [77.3448,28.4688],[77.3528,28.4588],[77.3588,28.4488],[77.3618,28.4388],
        [77.3538,28.4048]
      ]}
    },
    {
      "type": "Feature",
      "properties": { "line": "Airport Express", "color": "#FF9800" },
      "geometry": { "type": "LineString", "coordinates": [
        [77.2208,28.6368],[77.2088,28.6258],[77.1648,28.5958],[77.0938,28.5568],
        [77.1208,28.5508],[77.0580,28.5612]
      ]}
    },
    {
      "type": "Feature",
      "properties": { "line": "Pink Line", "color": "#E91E8C" },
      "geometry": { "type": "LineString", "coordinates": [
        [77.1558,28.7308],[77.1718,28.7168],[77.1812,28.7052],[77.1558,28.7008],
        [77.1418,28.6688],[77.1118,28.6588],[77.1048,28.6518],[77.1028,28.6388],
        [77.0958,28.6178],[77.0958,28.5918],[77.1038,28.5848],[77.1138,28.5788],
        [77.1278,28.5718],[77.1018,28.5668],[77.1208,28.5778],[77.1558,28.5698],
        [77.1748,28.5608],[77.1858,28.5578],[77.1928,28.5448],[77.2038,28.5438],
        [77.2168,28.5388],[77.2258,28.5298],[77.2348,28.5208],[77.2448,28.5118],
        [77.2528,28.5468],[77.2618,28.5178],[77.2768,28.5258],[77.2888,28.5338],
        [77.2998,28.5418],[77.3128,28.5298],[77.3248,28.5318],[77.3448,28.5438],
        [77.2948,28.6088],[77.2948,28.6018],[77.3038,28.6118],[77.3128,28.6208],
        [77.3228,28.6308],[77.3128,28.6468],[77.3108,28.6528],[77.3008,28.6618],
        [77.2908,28.6718],[77.2948,28.6688],[77.2838,28.6788],[77.2798,28.6878],
        [77.2768,28.6958],[77.2738,28.7038],[77.3568,28.6988],[77.1528,28.6988],
        [77.1308,28.6498],[77.2418,28.5698]
      ]}
    },
    {
      "type": "Feature",
      "properties": { "line": "Magenta Line", "color": "#FF00FF" },
      "geometry": { "type": "LineString", "coordinates": [
        [77.3370,28.5570],[77.3348,28.5308],[77.3148,28.5258],[77.2878,28.5468],
        [77.2778,28.5618],[77.2818,28.5718],[77.2868,28.5358],[77.2828,28.5268],
        [77.2528,28.5468],[77.2038,28.5438],[77.2218,28.5668],[77.2068,28.5388],
        [77.1878,28.5558],[77.1908,28.5668],[77.0838,28.6288],[77.0768,28.6128],
        [77.0848,28.6218],[77.0938,28.6308],[77.1028,28.6388],[77.1018,28.5668],
        [77.0648,28.5458],[77.0578,28.5538],[77.0678,28.5128],[77.1598,28.7208],
        [77.1688,28.7278],[77.1558,28.7308]
      ]}
    },
    {
      "type": "Feature",
      "properties": { "line": "Grey Line", "color": "#9E9E9E" },
      "geometry": { "type": "LineString", "coordinates": [
        [77.0628,28.5908],[77.0518,28.5828],[77.0148,28.6068],[76.9948,28.6148]
      ]}
    }
  ]
}
